NORAD_CAT_ID,OBJECT_NAME,OBJECT_TYPE,EPOCH,MEAN_MOTION,ECCENTRICITY,INCLINATION,RA_OF_ASC_NODE,ARG_OF_PERICENTER,MEAN_ANOMALY,BSTAR,MEAN_MOTION_DOT,MEAN_MOTION_DDOT,TLE_LINE0,TLE_LINE1,TLE_LINE2,SEMIMAJOR_AXIS,PERIOD,APOGEE,PERIGEE,DECAYED
50803.0,STARLINK-3321,PAYLOAD,2024-07-08 05:54:33,15.08847361,0.0001143,53.2176,25.0154,71.6901,288.4215,4.6321e-05,4.5e-06,0.0,0 STARLINK-3321,1 50803U 22001A   24190.24622362  .00000450  00000-0  46321-4 0  9993,2 50803  53.2176  25.0154 0001143  71.6901 288.4215 15.08847361139671,6917.858,95.437,540.514,538.932,0.0
50803.0,STARLINK-3321,PAYLOAD,2024-07-08 20:13:03,15.08832288,0.0001477,53.217,22.3397,71.9238,288.1915,3.9367e-05,3.39e-06,0.0,0 STARLINK-3321,1 50803U 22001A   24190.84239668  .00000339  00000-0  39367-4 0  9990,2 50803  53.2170  22.3397 0001477  71.9238 288.1915 15.08832288139766,6917.904,95.438,540.791,538.747,0.0
50803.0,STARLINK-3321,PAYLOAD,2024-07-08 21:48:26,15.08834674,0.0001476,53.2167,22.0421,67.1719,292.9429,5.7243e-05,6.23e-06,0.0,0 STARLINK-3321,1 50803U 22001A   24190.90863516  .00000623  00000-0  57243-4 0  9991,2 50803  53.2167  22.0421 0001476  67.1719 292.9429 15.08834674138502,6917.897,95.438,540.783,538.741,0.0
50803.0,STARLINK-3321,PAYLOAD,2024-07-09 12:06:54,15.08831953,0.0001231,53.2165,19.3661,77.2593,282.8537,1.4253e-05,-6.1e-07,0.0,0 STARLINK-3321,1 50803U 22001A   24191.50479905 -.00000061  00000-0  14253-4 0  9994,2 50803  53.2165  19.3661 0001231  77.2593 282.8537 15.08831953138590,6917.905,95.438,540.622,538.918,0.0
50803.0,STARLINK-3321,PAYLOAD,2024-07-09 20:03:49,15.08840404,0.0001192,53.2179,17.8815,75.9913,284.1212,7.9949e-06,-1.61e-06,0.0,0 STARLINK-3321,1 50803U 22001A   24191.83599465 -.00000161  00000-0  79949-5 0  9999,2 50803  53.2179  17.8815 0001192  75.9913 284.1212 15.08840404138648,6917.879,95.438,540.569,538.92,0.0
50803.0,STARLINK-3321,PAYLOAD,2024-07-10 11:57:41,15.08837716,0.0001324,53.218,14.9084,79.2382,280.8759,8.3447e-05,1.04e-05,0.0,0 STARLINK-3321,1 50803U 22001A   24192.49839474  .00001040  00000-0  83447-4 0  9992,2 50803  53.2180  14.9084 0001324  79.2382 280.8759 15.08837716138742,6917.887,95.438,540.668,538.836,0.0
50803.0,STARLINK-3321,PAYLOAD,2024-07-10 21:29:59,15.08845817,0.0001225,53.2173,13.1244,79.5738,280.5392,8.2028e-05,1.018e-05,0.0,0 STARLINK-3321,1 50803U 22001A   24192.89582914  .00001018  00000-0  82028-4 0  9999,2 50803  53.2173  13.1244 0001225  79.5738 280.5392 15.08845817138809,6917.863,95.437,540.575,538.88,0.0
50803.0,STARLINK-3321,PAYLOAD,2024-07-11 11:48:28,15.08842889,0.0001447,53.2174,10.4492,78.0999,282.0156,3.1867e-05,2.19e-06,0.0,0 STARLINK-3321,1 50803U 22001A   24193.49199286  .00000219  00000-0  31867-4 0  9999,2 50803  53.2174  10.4492 0001447  78.0999 282.0156 15.08842889138894,6917.872,95.437,540.738,538.736,0.0
50803.0,STARLINK-3321,PAYLOAD,2024-07-11 18:10:00,15.08847391,0.0001428,53.2153,9.2589,79.107,281.0083,5.3556e-05,5.65e-06,0.0,0 STARLINK-3321,1 50803U 22001A   24193.75694793  .00000565  00000-0  53556-4 0  9994,2 50803  53.2153   9.2589 0001428  79.1070 281.0083 15.08847391138931,6917.858,95.437,540.711,538.735,0.0
50803.0,STARLINK-3321,PAYLOAD,2024-07-12 11:39:15,15.0882912,9.42e-05,53.2216,5.9842,112.7363,247.3729,0.0001391,1.926e-05,0.0,0 STARLINK-3321,1 50803U 22001A   24194.48559528  .00001926  00000-0  13910-3 0  9992,2 50803  53.2216   5.9842 0000942 112.7363 247.3729 15.08829120140312,6917.914,95.438,540.43,539.127,0.0
50803.0,STARLINK-3321,PAYLOAD,2024-07-12 14:50:01,15.08840954,0.0001659,53.2183,5.3925,88.2498,271.8684,-3.1809e-06,-3.39e-06,0.0,0 STARLINK-3321,1 50803U 22001A   24194.61807504 -.00000339  00000-0 -31809-5 0  9995,2 50803  53.2183   5.3925 0001659  88.2498 271.8684 15.08840954139063,6917.877,95.437,540.89,538.595,0.0
50803.0,STARLINK-3321,PAYLOAD,2024-07-12 18:00:47,15.08841745,0.0001574,53.2181,4.7975,88.0186,272.0987,3.2731e-06,-2.36e-06,0.0,0 STARLINK-3321,1 50803U 22001A   24194.75055390 -.00000236  00000-0  32731-5 0  9998,2 50803  53.2181   4.7975 0001574  88.0186 272.0987 15.08841745140359,6917.875,95.437,540.829,538.651,0.0
50803.0,STARLINK-3321,PAYLOAD,2024-07-12 21:11:33,15.08848153,0.000111,53.219,4.201,95.8325,264.2794,-2.2157e-05,-6.41e-06,0.0,0 STARLINK-3321,1 50803U 22001A   24194.88302848 -.00000641  00000-0 -22157-4 0  9996,2 50803  53.2190   4.2010 0001110  95.8325 264.2794 15.08848153139101,6917.855,95.437,540.488,538.953,0.0
50803.0,STARLINK-3321,PAYLOAD,2024-07-13 14:40:48,15.08838397,0.0001208,53.2182,0.9286,95.2847,264.8283,-6.6187e-05,-1.341e-05,0.0,0 STARLINK-3321,1 50803U 22001A   24195.61167778 -.00001341  00000-0 -66187-4 0  9998,2 50803  53.2182   0.9286 0001208  95.2847 264.8283 15.08838397139211,6917.885,95.438,540.586,538.915,0.0
50803.0,STARLINK-3321,PAYLOAD,2024-07-13 17:51:34,15.08841879,0.0001265,53.2183,0.3331,106.6872,253.4259,3.1918e-06,-2.37e-06,0.0,0 STARLINK-3321,1 50803U 22001A   24195.74415350 -.00000237  00000-0  31918-5 0  9991,2 50803  53.2183   0.3331 0001265 106.6872 253.4259 15.08841879140505,6917.875,95.437,540.615,538.865,0.0
50803.0,STARLINK-3321,PAYLOAD,2024-07-14 14:31:35,15.08840231,0.0001368,53.2182,356.4695,96.6555,263.4593,9.3874e-05,1.206e-05,0.0,0 STARLINK-3321,1 50803U 22001A   24196.60527417  .00001206  00000-0  93874-4 0  9999,2 50803  53.2182 356.4695 0001368  96.6555 263.4593 15.08840231139367,6917.88,95.438,540.691,538.798,0.0
50803.0,STARLINK-3321,PAYLOAD,2024-07-14 17:42:21,15.08843139,0.0001271,53.2188,355.8794,91.8898,268.2239,0.00015357,2.157e-05,0.0,0 STARLINK-3321,1 50803U 22001A   24196.73775135  .00002157  00000-0  15357-3 0  9990,2 50803  53.2188 355.8794 0001271  91.8898 268.2239 15.08843139139388,6917.871,95.437,540.615,538.857,0.0
50803.0,STARLINK-3321,PAYLOAD,2024-07-15 03:14:40,15.08839964,0.0001155,53.2183,354.0906,83.6751,276.4373,1.4529e-05,-5.7e-07,0.0,0 STARLINK-3321,1 50803U 22001A   24197.13519623 -.00000057  00000-0  14529-4 0  9992,2 50803  53.2183 354.0906 0001155  83.6751 276.4373 15.08839964140717,6917.88,95.438,540.545,538.946,0.0
50803.0,STARLINK-3321,PAYLOAD,2024-07-15 14:22:23,15.08832277,0.0001398,53.2195,352.0141,101.7352,258.3797,-5.5249e-06,-3.76e-06,0.0,0 STARLINK-3321,1 50803U 22001A   24197.59888639 -.00000376  00000-0 -55249-5 0  9998,2 50803  53.2195 352.0141 0001398 101.7352 258.3797 15.08832277139512,6917.904,95.438,540.736,538.802,0.0
50803.0,STARLINK-3321,PAYLOAD,2024-07-15 20:43:55,15.08844369,0.0001251,53.2188,350.8199,89.8357,270.2778,9.3848e-05,1.206e-05,0.0,0 STARLINK-3321,1 50803U 22001A   24197.86383567  .00001206  00000-0  93848-4 0  9995,2 50803  53.2188 350.8199 0001251  89.8357 270.2778 15.08844369139553,6917.867,95.437,540.597,538.867,0.0
50803.0,STARLINK-3321,PAYLOAD,2024-07-16 03:05:28,15.08836027,0.0001245,53.2184,349.6301,90.639,269.4745,3.7757e-05,3.13e-06,0.0,0 STARLINK-3321,1 50803U 22001A   24198.12880325  .00000313  00000-0  37757-4 0  9994,2 50803  53.2184 349.6301 0001245  90.6390 269.4745 15.08836027140862,6917.893,95.438,540.619,538.896,0.0
50803.0,STARLINK-3321,PAYLOAD,2024-07-16 14:13:10,15.08841607,0.0001125,53.2182,347.5451,72.0181,288.0934,1.3919e-05,-6.6e-07,0.0,0 STARLINK-3321,1 50803U 22001A   24198.59248101 -.00000066  00000-0  13919-4 0  9995,2 50803  53.2182 347.5451 0001125  72.0181 288.0934 15.08841607139665,6917.875,95.437,540.519,538.962,0.0
50803.0,STARLINK-3321,PAYLOAD,2024-07-16 17:23:55,15.08857635,0.00011,53.2179,346.9548,95.8807,264.2311,0.00014323,1.993e-05,0.0,0 STARLINK-3321,1 50803U 22001A   24198.72494691  .00001993  00000-0  14323-3 0  9995,2 50803  53.2179 346.9548 0001100  95.8807 264.2311 15.08857635139687,6917.826,95.436,540.452,538.931,0.0
50803.0,STARLINK-3321,PAYLOAD,2024-07-17 02:56:14,15.08852363,0.0001257,53.2184,345.1693,70.0593,290.0534,3.4223e-05,2.57e-06,0.0,0 STARLINK-3321,1 50803U 22001A   24199.12239206  .00000257  00000-0  34223-4 0  9993,2 50803  53.2184 345.1693 0001257  70.0593 290.0534 15.08852363141012,6917.843,95.437,540.577,538.838,0.0
50803.0,STARLINK-3321,PAYLOAD,2024-07-17 09:17:48,15.08831952,0.0001675,53.2189,343.9844,85.9683,274.15,8.2087e-05,1.018e-05,0.0,0 STARLINK-3321,1 50803U 22001A   24199.38736671  .00001018  00000-0  82087-4 0  9996,2 50803  53.2189 343.9844 0001675  85.9683 274.1500 15.08831952141051,6917.905,95.438,540.929,538.611,0.0
50803.0,STARLINK-3321,PAYLOAD,2024-07-17 14:03:58,15.08829828,0.0001333,53.2182,343.0915,84.8185,275.2959,6.7293e-05,7.83e-06,0.0,0 STARLINK-3321,1 50803U 22001A   24199.58609014  .00000783  00000-0  67293-4 0  9998,2 50803  53.2182 343.0915 0001333  84.8185 275.2959 15.08829828139810,6917.911,95.438,540.699,538.854,0.0
50803.0,STARLINK-3321,PAYLOAD,2024-07-17 17:14:43,15.08848389,0.0001213,53.2184,342.4929,70.8573,289.255,8.0574e-05,9.95e-06,0.0,0 STARLINK-3321,1 50803U 22001A   24199.71855882  .00000995  00000-0  80574-4 0  9991,2 50803  53.2184 342.4929 0001213  70.8573 289.2550 15.08848389141103,6917.855,95.437,540.559,538.881,0.0
50803.0,STARLINK-3321,PAYLOAD,2024-07-18 09:08:35,15.08833316,8.16e-05,53.2178,339.5193,86.2822,273.8264,7.1905e-05,8.57e-06,0.0,0 STARLINK-3321,1 50803U 22001A   24200.38096864  .00000857  00000-0  71905-4 0  9999,2 50803  53.2178 339.5193 0000816  86.2822 273.8264 15.08833316141208,6917.901,95.438,540.33,539.201,0.0
50803.0,STARLINK-3321,PAYLOAD,2024-07-18 13:54:44,15.08842337,0.0001401,53.2178,338.6323,69.9443,290.17,7.4397e-05,8.96e-06,0.0,0 STARLINK-3321,1 50803U 22001A   24200.57968540  .00000896  00000-0  74397-4 0  9990,2 50803  53.2178 338.6323 0001401  69.9443 290.1700 15.08842337139961,6917.873,95.437,540.707,538.769,0.0
50803.0,STARLINK-3321,PAYLOAD,2024-07-18 15:30:07,15.08842901,0.0001127,53.2181,338.3335,87.1337,272.9784,8.022e-05,9.89e-06,0.0,0 STARLINK-3321,1 50803U 22001A   24200.64592382  .00000989  00000-0  80220-4 0  9990,2 50803  53.2181 338.3335 0001127  87.1337 272.9784 15.08842901141245,6917.872,95.437,540.516,538.957,0.0
